[{"OBJECT_NAME":"HODOYOSHI-4","OBJECT_ID":"2014-033B","EPOCH":"2026-03-09T23:32:21.950304","MEAN_MOTION":14.87847067,"ECCENTRICITY":0.0022404,"INCLINATION":97.5452,"RA_OF_ASC_NODE":258.5987,"ARG_OF_PERICENTER":275.1008,"MEAN_ANOMALY":84.7652,"EPHEMERIS_TYPE":0,"CLASSIFICATION_TYPE":"U","NORAD_CAT_ID":40011,"ELEMENT_SET_NO":999,"REV_AT_EPOCH":63405,"BSTAR":0.00030167959,"MEAN_MOTION_DOT":2.718e-5,"MEAN_MOTION_DDOT":0},{"OBJECT_NAME":"SL-14 R\/B","OBJECT_ID":"1987-024B","EPOCH":"2026-03-09T13:42:45.789120","MEAN_MOTION":14.86131911,"ECCENTRICITY":0.0016681,"INCLINATION":82.5247,"RA_OF_ASC_NODE":92.875,"ARG_OF_PERICENTER":260.348,"MEAN_ANOMALY":99.5853,"EPHEMERIS_TYPE":0,"CLASSIFICATION_TYPE":"U","NORAD_CAT_ID":17567,"ELEMENT_SET_NO":999,"REV_AT_EPOCH":8811,"BSTAR":6.0637e-5,"MEAN_MOTION_DOT":5.57e-6,"MEAN_MOTION_DDOT":0}]
